ONEWEB-0435             
1 51632U 22012L   24151.57931118 -.00000595  00000+0 -17414-2 0  9991
2 51632  87.8948 184.8997 0002413  98.1814 261.9587 13.10371305111409
ONEWEB-0436             
1 51633U 22012M   24151.54552442  .00000053  00000+0  10299-3 0  9990
2 51633  87.9158 154.6738 0002213  93.0710 267.0675 13.17650764115224
ONEWEB-0438             
1 51634U 22012N   24151.56272491  .00000050  00000+0  10672-3 0  9998
2 51634  87.8946 184.9034 0001865  96.4198 263.7141 13.10369246111438
ONEWEB-0439             
1 51635U 22012P   24151.56604069 -.00000123  00000+0 -38741-3 0  9999
2 51635  87.8947 184.8876 0002116  93.5778 266.5592 13.10368644111415
ONEWEB-0442             
1 51636U 22012Q   24151.53682687  .00000086  00000+0  18764-3 0  9998
2 51636  87.9161 154.7094 0001412  68.3781 291.7501 13.17651409115218
ONEWEB-0443             
1 51637U 22012R   24151.55660476  .00000028  00000+0  39481-4 0  9999
2 51637  87.9164 154.7130 0002223 101.6250 258.5131 13.17651081115267
ONEWEB-0444             
1 51638U 22012S   24151.58334491  .00011416  00000+0  32630-1 0  9997
2 51638  87.8940 184.9065 0002255  98.6642  29.9579 13.10365899  5262
ONEWEB-0445             
1 51639U 22012T   24151.57764981 -.00000586  00000+0 -17156-2 0  9993
2 51639  87.8938 184.8807 0001894  85.3876 274.7468 13.10370604111437
